[{"OBJECT_NAME":"STARLINK-3957","OBJECT_ID":"2022-051AF","EPOCH":"2026-03-09T09:01:37.949088","MEAN_MOTION":15.08829814,"ECCENTRICITY":0.00012835,"INCLINATION":53.2167,"RA_OF_ASC_NODE":120.527,"ARG_OF_PERICENTER":82.2359,"MEAN_ANOMALY":277.8779,"EPHEMERIS_TYPE":0,"CLASSIFICATION_TYPE":"U","NORAD_CAT_ID":52562,"ELEMENT_SET_NO":999,"REV_AT_EPOCH":21153,"BSTAR":-9.6119038e-5,"MEAN_MOTION_DOT":-1.817e-5,"MEAN_MOTION_DDOT":0},{"OBJECT_NAME":"CZ-4 DEB","OBJECT_ID":"2006-046L","EPOCH":"2026-03-09T05:26:57.251328","MEAN_MOTION":15.20206122,"ECCENTRICITY":0.00567956,"INCLINATION":97.8211,"RA_OF_ASC_NODE":163.0679,"ARG_OF_PERICENTER":229.3561,"MEAN_ANOMALY":130.2727,"EPHEMERIS_TYPE":0,"CLASSIFICATION_TYPE":"U","NORAD_CAT_ID":35378,"ELEMENT_SET_NO":999,"REV_AT_EPOCH":2541,"BSTAR":0.0021311714,"MEAN_MOTION_DOT":0.00048409,"MEAN_MOTION_DDOT":0}]
